OBJECT_NAME,OBJECT_ID,EPOCH,MEAN_MOTION,ECCENTRICITY,INCLINATION,RA_OF_ASC_NODE,ARG_OF_PERICENTER,MEAN_ANOMALY,EPHEMERIS_TYPE,CLASSIFICATION_TYPE,NORAD_CAT_ID,ELEMENT_SET_NO,REV_AT_EPOCH,BSTAR,MEAN_MOTION_DOT,MEAN_MOTION_DDOT
FOX-1CLIFF (AO-95),2018-099N,2026-06-17T01:51:52.056576,15.26709473,.0008015,97.4377,228.3240,358.3835,1.7377,0,U,43770,999,41320,.32585E-3,.8495E-4,0
RANGE-A,2018-099R,2026-06-17T04:16:20.732736,15.13389954,.000982,97.3961,210.7574,357.4076,2.7103,0,U,43773,999,41249,.20008E-3,.351E-4,0
SNUSAT-2,2018-099AA,2026-06-17T01:41:13.927776,15.21837437,.0008624,97.4057,221.4559,299.1152,60.9220,0,U,43782,999,41301,.29389E-3,.6616E-4,0
SNUGLITE,2018-099AC,2026-06-17T01:52:32.776896,15.27177307,.0001192,97.3864,222.3590,291.7097,68.4015,0,U,43784,999,41330,.33414E-3,.8831E-4,0
ITASAT,2018-099AE,2026-06-17T02:06:03.945888,15.19055872,.0012101,97.4026,219.6012,0.6685,359.4564,0,U,43786,999,41289,.26431E-3,.5482E-4,0
EAGLET-I,2018-099AJ,2026-06-16T20:30:20.377728,15.12938396,.0010697,97.4229,217.5319,355.8088,4.3052,0,U,43790,999,41228,.17226E-3,.2975E-4,0
ESEO,2018-099AL,2026-06-17T02:43:52.909248,15.04248019,.0011324,97.3974,205.5049,340.2605,19.8182,0,U,43792,999,41179,.13261E-3,.1788E-4,0
THEA,2018-099AQ,2026-06-16T22:35:34.285056,15.35007272,.0005837,97.4443,237.6308,284.0127,76.0467,0,U,43796,999,41265,.44403E-3,.15018E-3,0
ASTROCAST 0.1,2018-099AS,2026-06-16T17:52:27.067008,15.49513489,.0005103,97.4377,246.2280,205.5755,154.5244,0,U,43798,999,41436,.52518E-3,.28915E-3,0
JY1SAT (JO-97),2018-099AX,2026-06-16T16:54:09.187200,15.33640706,.000432,97.4127,230.5368,264.4420,95.6330,0,U,43803,999,41355,.42078E-3,.13619E-3,0
SUOMI-100,2018-099AY,2026-06-16T16:22:48.201312,15.28405633,.0008334,97.4182,228.0775,281.2110,78.8193,0,U,43804,999,41334,.34649E-3,.9519E-4,0
CENTAURI-1,2018-099BD,2026-06-17T01:46:40.662336,15.16365298,.0013094,97.4220,219.7961,334.2877,25.7704,0,U,43809,999,41248,.22062E-3,.4223E-4,0
GLOBAL-2,2018-099BG,2026-06-17T01:47:45.554784,15.08670507,.0006943,97.3551,204.5931,142.7012,217.4701,0,U,43812,999,41189,.13151E-3,.2001E-4,0
SEAHAWK-1,2018-099BQ,2026-06-17T01:41:37.743936,15.22807566,.000675,97.3952,220.5577,316.3204,43.7498,0,U,43820,999,41251,.3127E-3,.7247E-4,0
SAUDISAT 5A,2018-102A,2026-06-17T03:57:20.811744,15.28048792,.0011006,97.3066,229.7463,129.1837,231.0382,0,U,43831,999,41567,.17974E-3,.4851E-4,0
SAUDISAT 5B,2018-102C,2026-06-17T04:24:29.287584,15.28304638,.0011675,97.3174,232.8344,131.2379,228.9869,0,U,43833,999,41579,.15897E-3,.4316E-4,0
ISAT,2018-111D,2026-06-16T07:56:48.944256,15.65156553,.00008393,97.5885,102.4869,128.9193,231.2141,0,U,43879,999,41103,.83407843E-3,.82852E-3,0
UWE-4,2018-111E,2026-06-16T18:17:23.877024,15.46104351,.0005598,97.5856,96.1335,344.6304,15.4774,0,U,43880,999,41071,.58526E-3,.28639E-3,0
D-STAR ONE (SPARROW),2018-111F,2026-06-17T01:37:15.012768,15.74405767,.0004489,97.6130,108.8960,112.7425,247.4314,0,U,43881,999,41135,.10181E-2,.14935E-2,0
JILIN-1 09,2019-005B,2026-06-17T04:19:13.888704,15.20514560,.0003787,97.4743,263.1423,94.7453,265.4214,0,U,43943,999,40914,.1585E-3,.3396E-4,0
JILIN-1 10,2019-005E,2026-06-17T04:36:43.485408,15.25722214,.0006573,97.4790,266.9960,278.9280,81.1214,0,U,43946,999,40931,.1763E-3,.4423E-4,0
EGYPTSAT-A (MISRSAT-A),2019-008A,2026-06-17T03:26:16.088928,14.72308155,.00013,98.0189,232.9039,95.8955,264.2401,0,U,44047,999,39323,.1427E-3,.853E-5,0
EMISAT,2019-018A,2026-06-17T03:27:50.456736,14.43686520,.0017739,98.4647,226.9448,214.7459,145.2574,0,U,44078,999,38005,.98644E-5,-.11E-6,0
JILIN-1 GAOFEN 3A,2019-032C,2026-06-17T05:10:20.357760,15.32629445,.0006444,44.9754,356.7806,296.1891,63.8331,0,U,44312,999,38784,.29008E-3,.9023E-4,0
WT 1B,2019-032G,2026-06-17T03:13:05.846016,15.27182162,.0009947,44.9725,61.2291,248.2449,111.7375,0,U,44316,999,38707,.31763E-3,.8346E-4,0
PROX-1,2019-036A,2026-06-17T04:35:15.988128,14.90607207,.0005754,23.9926,114.2231,36.9692,323.1203,0,U,44339,999,37347,.99479E-3,.10269E-3,0
NPSAT1,2019-036B,2026-06-16T20:19:16.512096,14.74576836,.0007222,23.9973,219.9806,202.4838,157.5341,0,U,44340,999,37244,.53159E-3,.3869E-4,0
FORMOSAT 7-3,2019-036E,2026-06-16T17:18:29.272896,15.09796982,.0000311,23.9974,181.7483,254.8807,105.1662,0,U,44343,999,38317,.16843E-3,.3138E-4,0
