FOX-1CLIFF (AO-95)      
1 43770U 18099N   26168.07768584  .00008495  00000+0  32585-3 0  9997
2 43770  97.4377 228.3240 0008015 358.3835   1.7377 15.26709473413209
RANGE-A                 
1 43773U 18099R   26168.17801774  .00003510  00000+0  20008-3 0  9990
2 43773  97.3961 210.7574 0009820 357.4076   2.7103 15.13389954412499
SNUSAT-2                
1 43782U 18099AA  26168.07030009  .00006616  00000+0  29389-3 0  9995
2 43782  97.4057 221.4559 0008624 299.1152  60.9220 15.21837437413014
SNUGLITE                
1 43784U 18099AC  26168.07815714  .00008831  00000+0  33414-3 0  9996
2 43784  97.3864 222.3590 0001192 291.7097  68.4015 15.27177307413301
ITASAT                  
1 43786U 18099AE  26168.08754567  .00005482  00000+0  26431-3 0  9997
2 43786  97.4026 219.6012 0012101   0.6685 359.4564 15.19055872412892
EAGLET-I                
1 43790U 18099AJ  26167.85440252  .00002975  00000+0  17226-3 0  9995
2 43790  97.4229 217.5319 0010697 355.8088   4.3052 15.12938396412284
ESEO                    
1 43792U 18099AL  26168.11380682  .00001788  00000+0  13261-3 0  9993
2 43792  97.3974 205.5049 0011324 340.2605  19.8182 15.04248019411797
THEA                    
1 43796U 18099AQ  26167.94136904  .00015018  00000+0  44403-3 0  9996
2 43796  97.4443 237.6308 0005837 284.0127  76.0467 15.35007272412658
ASTROCAST 0.1           
1 43798U 18099AS  26167.74475772  .00028915  00000+0  52518-3 0  9991
2 43798  97.4377 246.2280 0005103 205.5755 154.5244 15.49513489414364
JY1SAT (JO-97)          
1 43803U 18099AX  26167.70427300  .00013619  00000+0  42078-3 0  9993
2 43803  97.4127 230.5368 0004320 264.4420  95.6330 15.33640706413557
SUOMI-100               
1 43804U 18099AY  26167.68250233  .00009519  00000+0  34649-3 0  9999
2 43804  97.4182 228.0775 0008334 281.2110  78.8193 15.28405633413344
CENTAURI-1              
1 43809U 18099BD  26168.07408174  .00004223  00000+0  22062-3 0  9990
2 43809  97.4220 219.7961 0013094 334.2877  25.7704 15.16365298412486
GLOBAL-2                
1 43812U 18099BG  26168.07483281  .00002001  00000+0  13151-3 0  9997
2 43812  97.3551 204.5931 0006943 142.7012 217.4701 15.08670507411897
SEAHAWK-1               
1 43820U 18099BQ  26168.07057574  .00007247  00000+0  31270-3 0  9997
2 43820  97.3952 220.5577 0006750 316.3204  43.7498 15.22807566412519
SAUDISAT 5A             
1 43831U 18102A   26168.16482421  .00004851  00000+0  17974-3 0  9990
2 43831  97.3066 229.7463 0011006 129.1837 231.0382 15.28048792415672
SAUDISAT 5B             
1 43833U 18102C   26168.18367231  .00004316  00000+0  15897-3 0  9993
2 43833  97.3174 232.8344 0011675 131.2379 228.9869 15.28304638415796
ISAT                    
1 43879U 18111D   26167.33112204  .00082852  00000+0  83408-3 0  9991
2 43879  97.5885 102.4869 0000839 128.9193 231.2141 15.65156553411033
UWE-4                   
1 43880U 18111E   26167.76208191  .00028639  00000+0  58526-3 0  9997
2 43880  97.5856  96.1335 0005598 344.6304  15.4774 15.46104351410714
D-STAR ONE (SPARROW)    
1 43881U 18111F   26168.06753487  .00149350  00000+0  10181-2 0  9993
2 43881  97.6130 108.8960 0004489 112.7425 247.4314 15.74405767411356
JILIN-1 09              
1 43943U 19005B   26168.18002186  .00003396  00000+0  15850-3 0  9999
2 43943  97.4743 263.1423 0003787  94.7453 265.4214 15.20514560409148
JILIN-1 10              
1 43946U 19005E   26168.19216997  .00004423  00000+0  17630-3 0  9990
2 43946  97.4790 266.9960 0006573 278.9280  81.1214 15.25722214409314
EGYPTSAT-A (MISRSAT-A)  
1 44047U 19008A   26168.14324177  .00000853  00000+0  14270-3 0  9991
2 44047  98.0189 232.9039 0001300  95.8955 264.2401 14.72308155393234
EMISAT                  
1 44078U 19018A   26168.14433399 -.00000011  00000+0  98644-5 0  9999
2 44078  98.4647 226.9448 0017739 214.7459 145.2574 14.43686520380050
JILIN-1 GAOFEN 3A       
1 44312U 19032C   26168.21551340  .00009023  00000+0  29008-3 0  9998
2 44312  44.9754 356.7806 0006444 296.1891  63.8331 15.32629445387843
WT 1B                   
1 44316U 19032G   26168.13409544  .00008346  00000+0  31763-3 0  9999
2 44316  44.9725  61.2291 0009947 248.2449 111.7375 15.27182162387079
PROX-1                  
1 44339U 19036A   26168.19115727  .00010269  00000+0  99479-3 0  9996
2 44339  23.9926 114.2231 0005754  36.9692 323.1203 14.90607207373470
NPSAT1                  
1 44340U 19036B   26167.84671889  .00003869  00000+0  53159-3 0  9998
2 44340  23.9973 219.9806 0007222 202.4838 157.5341 14.74576836372442
FORMOSAT 7-3            
1 44343U 19036E   26167.72117214  .00003138  00000+0  16843-3 0  9993
2 44343  23.9974 181.7483 0000311 254.8807 105.1662 15.09796982383174
